CORAL                   
1 67684U 98067YA  26091.04748259  .00107830  00000+0  13811-2 0  9992
2 67684  51.6293 319.7077 0013201 257.1133 102.8385 15.58243212  8279
GXIBA-1                 
1 67685U 98067YB  26091.04898800  .00056374  00000+0  84480-3 0  9998
2 67685  51.6319 320.4680 0012232 264.1880  95.7716 15.54306639  8264
UITMSAT-2               
1 67686U 98067YC  26091.03232896  .00068374  00000+0  98495-3 0  9999
2 67686  51.6314 320.3591 0009322 237.1849 122.8245 15.55338997  8263
HMU-SAT2                
1 67687U 98067YD  26091.05444820  .00055523  00000+0  84138-3 0  9995
2 67687  51.6315 320.5076 0008863 239.8027 120.2086 15.54047258  8183
LEOPARD                 
1 67688U 98067YE  26091.03992485  .00063364  00000+0  92981-3 0  9996
2 67688  51.6313 320.4106 0009081 237.4781 122.5333 15.54869785  8186
CREW DRAGON 12          
1 67796U 26031A   26091.10102623  .00008862  00000+0  17059-3 0  9998
2 67796  51.6334 321.5639 0006224 257.9417 102.0874 15.48690056559776
PROGRESS-MS 33          
1 68319U 26058A   26091.10102623  .00008862  00000+0  17059-3 0  9999
2 68319  51.6334 321.5639 0006224 257.9417 102.0874 15.48690056  1286
